{
  "type": "FeatureCollection",
  "features": [
    {"type":"Feature","properties":{"name":"Ghawar Oil Field","country":"Saudi Arabia","category":"oil","type":"Oil Field","operator":"Saudi Aramco","capacity":"3.8M bbl/day","status":"operational","risk":"medium","strategic":"World's largest oil field — 60% of Saudi output"},"geometry":{"type":"Point","coordinates":[49.39,25.39]}},
    {"type":"Feature","properties":{"name":"Ras Tanura Oil Terminal","country":"Saudi Arabia","category":"oil","type":"Oil Terminal","operator":"Saudi Aramco","capacity":"6.5M bbl/day","status":"operational","risk":"high","strategic":"Largest offshore oil loading terminal in the world"},"geometry":{"type":"Point","coordinates":[50.16,26.64]}},
    {"type":"Feature","properties":{"name":"Abqaiq Processing Facility","country":"Saudi Arabia","category":"oil","type":"Oil Processing","operator":"Saudi Aramco","capacity":"7M bbl/day","status":"operational","risk":"critical","strategic":"Processes 70% of Saudi crude — attacked by drones 2019"},"geometry":{"type":"Point","coordinates":[49.67,25.94]}},
    {"type":"Feature","properties":{"name":"Kharg Island Terminal","country":"Iran","category":"oil","type":"Oil Terminal","operator":"NIOC","capacity":"5M bbl/day","status":"operational","risk":"high","strategic":"90% of Iran's oil exports transit here"},"geometry":{"type":"Point","coordinates":[50.33,29.23]}},
    {"type":"Feature","properties":{"name":"Basra Oil Terminal","country":"Iraq","category":"oil","type":"Oil Terminal","operator":"SOMO","capacity":"3.4M bbl/day","status":"operational","risk":"high","strategic":"Iraq's main oil export terminal — Persian Gulf"},"geometry":{"type":"Point","coordinates":[48.8,29.68]}},
    {"type":"Feature","properties":{"name":"Primorsk Oil Terminal","country":"Russia","category":"oil","type":"Oil Terminal","operator":"Transneft","capacity":"1.3M bbl/day","status":"operational","risk":"medium","strategic":"Baltic Sea — major Russian crude export terminal"},"geometry":{"type":"Point","coordinates":[28.67,60.35]}},
    {"type":"Feature","properties":{"name":"Rotterdam Europoort","country":"Netherlands","category":"oil","type":"Oil Refinery Hub","operator":"Multiple","capacity":"1.2M bbl/day","status":"operational","risk":"low","strategic":"Europe's largest port & refining hub"},"geometry":{"type":"Point","coordinates":[4.0,51.95]}},
    {"type":"Feature","properties":{"name":"Cushing Oil Hub","country":"USA","category":"oil","type":"Oil Storage Hub","operator":"Multiple","capacity":"90M bbl storage","status":"operational","risk":"low","strategic":"WTI pricing benchmark — 'Pipeline Crossroads of the World'"},"geometry":{"type":"Point","coordinates":[-96.77,35.98]}},
    {"type":"Feature","properties":{"name":"Druzhba Pipeline (Mozyr)","country":"Belarus","category":"oil","type":"Pipeline Hub","operator":"Gomeltransneft","capacity":"1.4M bbl/day","status":"operational","risk":"high","strategic":"Key junction — Russia-Europe oil supply"},"geometry":{"type":"Point","coordinates":[29.23,52.05]}},
    {"type":"Feature","properties":{"name":"BTC Pipeline (Ceyhan)","country":"Turkey","category":"oil","type":"Pipeline Terminal","operator":"BP/SOCAR","capacity":"1.2M bbl/day","status":"operational","risk":"medium","strategic":"Caspian oil bypassing Russia → Mediterranean"},"geometry":{"type":"Point","coordinates":[35.95,36.88]}},

    {"type":"Feature","properties":{"name":"Ras Laffan LNG","country":"Qatar","category":"gas","type":"LNG Terminal","operator":"QatarEnergy","capacity":"77M tons/year","status":"operational","risk":"medium","strategic":"World's largest LNG export facility"},"geometry":{"type":"Point","coordinates":[51.53,25.93]}},
    {"type":"Feature","properties":{"name":"Yamal LNG","country":"Russia","category":"gas","type":"LNG Terminal","operator":"Novatek","capacity":"17.5M tons/year","status":"operational","risk":"medium","strategic":"Arctic LNG — key for Asian/European supply"},"geometry":{"type":"Point","coordinates":[72.0,71.25]}},
    {"type":"Feature","properties":{"name":"Nord Stream Landing (Lubmin)","country":"Germany","category":"gas","type":"Pipeline Terminal","operator":"Nord Stream AG","capacity":"55 bcm/year (damaged)","status":"damaged","risk":"critical","strategic":"Sabotaged Sept 2022 — Russia-Germany gas link"},"geometry":{"type":"Point","coordinates":[13.65,54.14]}},
    {"type":"Feature","properties":{"name":"TurkStream Landing","country":"Turkey","category":"gas","type":"Pipeline Terminal","operator":"Gazprom","capacity":"31.5 bcm/year","status":"operational","risk":"medium","strategic":"Russia-Turkey gas — alternative to Ukraine transit"},"geometry":{"type":"Point","coordinates":[27.75,41.67]}},
    {"type":"Feature","properties":{"name":"Henry Hub","country":"USA","category":"gas","type":"Gas Hub","operator":"Sabine Pipe Line","capacity":"benchmark","status":"operational","risk":"low","strategic":"US natural gas pricing benchmark"},"geometry":{"type":"Point","coordinates":[-93.85,30.01]}},

    {"type":"Feature","properties":{"name":"Three Gorges Dam","country":"China","category":"energy","type":"Hydroelectric Dam","operator":"CTG","capacity":"22,500 MW","status":"operational","risk":"critical","strategic":"World's largest power station — Yangtze flood control"},"geometry":{"type":"Point","coordinates":[111.0,30.82]}},
    {"type":"Feature","properties":{"name":"Itaipu Dam","country":"Brazil/Paraguay","category":"energy","type":"Hydroelectric Dam","operator":"Itaipu Binacional","capacity":"14,000 MW","status":"operational","risk":"medium","strategic":"Powers 15% of Brazil + 75% of Paraguay"},"geometry":{"type":"Point","coordinates":[-54.59,-25.41]}},
    {"type":"Feature","properties":{"name":"Aswan High Dam","country":"Egypt","category":"energy","type":"Hydroelectric Dam","operator":"HAEA","capacity":"2,100 MW","status":"operational","risk":"high","strategic":"Controls Nile flood — existential for Egypt/Sudan"},"geometry":{"type":"Point","coordinates":[32.88,23.97]}},
    {"type":"Feature","properties":{"name":"Grand Ethiopian Renaissance Dam","country":"Ethiopia","category":"energy","type":"Hydroelectric Dam","operator":"EEPCO","capacity":"6,450 MW","status":"filling","risk":"critical","strategic":"Blue Nile dispute — Egypt/Sudan/Ethiopia tensions"},"geometry":{"type":"Point","coordinates":[35.09,11.21]}},
    {"type":"Feature","properties":{"name":"Kashagan Oil/Gas Field","country":"Kazakhstan","category":"energy","type":"Oil & Gas Field","operator":"NCOC","capacity":"370k bbl/day","status":"operational","risk":"medium","strategic":"Largest discovery in 30 years — Caspian shelf"},"geometry":{"type":"Point","coordinates":[51.5,46.3]}},

    {"type":"Feature","properties":{"name":"Suez Canal","country":"Egypt","category":"chokepoint","type":"Maritime Chokepoint","operator":"SCA","capacity":"19k ships/year","status":"operational","risk":"high","strategic":"12% of world trade — $10B/day in goods transit"},"geometry":{"type":"Point","coordinates":[32.34,30.58]}},
    {"type":"Feature","properties":{"name":"Panama Canal","country":"Panama","category":"chokepoint","type":"Maritime Chokepoint","operator":"ACP","capacity":"14k ships/year","status":"operational","risk":"medium","strategic":"5% of world trade — drought affecting operations"},"geometry":{"type":"Point","coordinates":[-79.92,9.08]}},
    {"type":"Feature","properties":{"name":"Strait of Malacca (Singapore)","country":"Singapore","category":"chokepoint","type":"Maritime Chokepoint","operator":"Multiple","capacity":"25% of world trade","status":"operational","risk":"high","strategic":"Key Asia-Europe route — piracy risk"},"geometry":{"type":"Point","coordinates":[103.85,1.27]}},
    {"type":"Feature","properties":{"name":"Bab el-Mandeb","country":"Yemen/Djibouti","category":"chokepoint","type":"Maritime Chokepoint","operator":"N/A","capacity":"6.2M bbl/day oil","status":"contested","risk":"critical","strategic":"Houthi attacks disrupting Red Sea shipping"},"geometry":{"type":"Point","coordinates":[43.33,12.58]}},
    {"type":"Feature","properties":{"name":"Strait of Hormuz","country":"Iran/Oman","category":"chokepoint","type":"Maritime Chokepoint","operator":"N/A","capacity":"21M bbl/day oil","status":"operational","risk":"critical","strategic":"33% of seaborne oil — Iran threatens closure"},"geometry":{"type":"Point","coordinates":[56.27,26.57]}},
    {"type":"Feature","properties":{"name":"Turkish Straits (Bosphorus)","country":"Turkey","category":"chokepoint","type":"Maritime Chokepoint","operator":"Turkey","capacity":"3M bbl/day oil","status":"operational","risk":"medium","strategic":"Black Sea access — Russia/Ukraine grain/oil"},"geometry":{"type":"Point","coordinates":[29.05,41.12]}},

    {"type":"Feature","properties":{"name":"Witwatersrand Gold Basin","country":"South Africa","category":"mining","type":"Gold Mining","operator":"Multiple","capacity":"100+ tons/year","status":"operational","risk":"medium","strategic":"Historically largest gold deposit — 40% of all gold ever mined"},"geometry":{"type":"Point","coordinates":[27.85,-26.17]}},
    {"type":"Feature","properties":{"name":"Grasberg Mine","country":"Indonesia (Papua)","category":"mining","type":"Gold & Copper Mine","operator":"Freeport-McMoRan","capacity":"Largest gold mine","status":"operational","risk":"medium","strategic":"World's largest gold mine + 3rd largest copper"},"geometry":{"type":"Point","coordinates":[137.12,-4.05]}},
    {"type":"Feature","properties":{"name":"Escondida Mine","country":"Chile","category":"mining","type":"Copper Mine","operator":"BHP","capacity":"1.2M tons copper/year","status":"operational","risk":"low","strategic":"World's largest copper mine — 5% of global supply"},"geometry":{"type":"Point","coordinates":[-69.07,-24.27]}},
    {"type":"Feature","properties":{"name":"Bayan Obo Mine","country":"China (Inner Mongolia)","category":"mining","type":"Rare Earth Mine","operator":"Baotou Steel","capacity":"50% world REE","status":"operational","risk":"critical","strategic":"World's largest rare earth deposit — chips, EV, defense"},"geometry":{"type":"Point","coordinates":[109.97,41.78]}},
    {"type":"Feature","properties":{"name":"Cobalt Belt (Kolwezi)","country":"DRC","category":"mining","type":"Cobalt & Copper Mine","operator":"Multiple (Glencore/CMOC)","capacity":"70% world cobalt","status":"operational","risk":"critical","strategic":"Critical for EV batteries — child labor concerns"},"geometry":{"type":"Point","coordinates":[25.47,-10.72]}},
    {"type":"Feature","properties":{"name":"Lithium Triangle (Salar de Atacama)","country":"Chile","category":"mining","type":"Lithium Brine","operator":"SQM/Albemarle","capacity":"30% world lithium","status":"operational","risk":"medium","strategic":"Critical for EV batteries — geopolitical competition"},"geometry":{"type":"Point","coordinates":[-68.36,-23.5]}},

    {"type":"Feature","properties":{"name":"Hoover Dam","country":"USA","category":"water","type":"Dam / Water Control","operator":"Bureau of Reclamation","capacity":"2,080 MW + water","status":"operational","risk":"medium","strategic":"Lake Mead water supply for 25M people — critically low"},"geometry":{"type":"Point","coordinates":[-114.74,36.02]}},
    {"type":"Feature","properties":{"name":"Mosul Dam","country":"Iraq","category":"water","type":"Dam","operator":"Iraq Gov","capacity":"11.1 km³","status":"at risk","risk":"critical","strategic":"'Most dangerous dam in world' — collapse would flood Mosul"},"geometry":{"type":"Point","coordinates":[42.82,36.63]}},
    {"type":"Feature","properties":{"name":"Tarbela Dam","country":"Pakistan","category":"water","type":"Dam","operator":"WAPDA","capacity":"3,478 MW","status":"operational","risk":"high","strategic":"Pakistan's largest dam — Indus water dispute with India"},"geometry":{"type":"Point","coordinates":[72.7,34.09]}},
    {"type":"Feature","properties":{"name":"Merowe Dam","country":"Sudan","category":"water","type":"Dam","operator":"DIU","capacity":"1,250 MW","status":"operational","risk":"high","strategic":"Nile water — civil war threatens infrastructure"},"geometry":{"type":"Point","coordinates":[32.07,18.47]}},

    {"type":"Feature","properties":{"name":"TSMC Fab 18 (3nm)","country":"Taiwan","category":"tech","type":"Semiconductor Fab","operator":"TSMC","capacity":"3nm chips","status":"operational","risk":"critical","strategic":"World's most advanced chip fab — 90% of <7nm chips"},"geometry":{"type":"Point","coordinates":[120.29,23.0]}},
    {"type":"Feature","properties":{"name":"Samsung Pyeongtaek Campus","country":"South Korea","category":"tech","type":"Semiconductor Fab","operator":"Samsung","capacity":"3nm/5nm","status":"operational","risk":"high","strategic":"Largest semiconductor facility in the world"},"geometry":{"type":"Point","coordinates":[127.07,36.99]}},
    {"type":"Feature","properties":{"name":"ASML Headquarters","country":"Netherlands","category":"tech","type":"EUV Lithography","operator":"ASML","capacity":"Monopoly on EUV","status":"operational","risk":"critical","strategic":"Only company making EUV machines — bottleneck for all chips"},"geometry":{"type":"Point","coordinates":[5.53,51.41]}},

    {"type":"Feature","properties":{"name":"Internet Exchange Frankfurt (DE-CIX)","country":"Germany","category":"cyber","type":"Internet Exchange","operator":"DE-CIX","capacity":"14+ Tbps peak","status":"operational","risk":"high","strategic":"World's largest internet exchange by traffic"},"geometry":{"type":"Point","coordinates":[8.68,50.11]}},
    {"type":"Feature","properties":{"name":"Submarine Cable Landing (Marseille)","country":"France","category":"cyber","type":"Submarine Cable Hub","operator":"Multiple","capacity":"15+ cables","status":"operational","risk":"high","strategic":"Major EU-Africa-Asia submarine cable hub"},"geometry":{"type":"Point","coordinates":[5.37,43.3]}},
    {"type":"Feature","properties":{"name":"Submarine Cable Landing (Cornwall)","country":"UK","category":"cyber","type":"Submarine Cable Hub","operator":"Multiple","capacity":"Transatlantic hub","status":"operational","risk":"high","strategic":"Key transatlantic cable landing — UK/US link"},"geometry":{"type":"Point","coordinates":[-5.05,50.07]}},

    {"type":"Feature","properties":{"name":"Port of Shanghai","country":"China","category":"port","type":"Container Port","operator":"SIPG","capacity":"47M TEU/year","status":"operational","risk":"medium","strategic":"World's busiest container port"},"geometry":{"type":"Point","coordinates":[121.81,31.36]}},
    {"type":"Feature","properties":{"name":"Port of Singapore","country":"Singapore","category":"port","type":"Container Port","operator":"PSA/Jurong","capacity":"37M TEU/year","status":"operational","risk":"low","strategic":"2nd busiest port — Malacca Strait chokepoint"},"geometry":{"type":"Point","coordinates":[103.83,1.26]}},
    {"type":"Feature","properties":{"name":"Port of Antwerp-Bruges","country":"Belgium","category":"port","type":"Container Port","operator":"Port of Antwerp","capacity":"14M TEU/year","status":"operational","risk":"low","strategic":"Europe's 2nd largest port — chemical hub"},"geometry":{"type":"Point","coordinates":[4.35,51.27]}},

    {"type":"Feature","properties":{"name":"Zaporizhzhia NPP","country":"Ukraine","category":"nuclear","type":"Nuclear Power Plant","operator":"Energoatom","capacity":"5,700 MW","status":"occupied","risk":"critical","strategic":"Europe's largest NPP — frontline of conflict"},"geometry":{"type":"Point","coordinates":[34.59,47.51]}},
    {"type":"Feature","properties":{"name":"Fukushima Daiichi","country":"Japan","category":"nuclear","type":"Nuclear Power Plant","operator":"TEPCO","capacity":"decommissioning","status":"decommissioning","risk":"high","strategic":"2011 meltdown — ongoing water release controversy"},"geometry":{"type":"Point","coordinates":[141.03,37.42]}}
  ]
}
